IDEFIX & ARIANE 42P R/B 
1 27422U 02021B   26050.80602666  .00000256  00000+0  11396-3 0  9994
2 27422  98.5855 349.6281 0010739 238.0664 121.9475 14.31012476241466
AQUA                    
1 27424U 02022A   26051.24161142  .00000872  00000+0  18408-3 0  9990
2 27424  98.4144  18.2933 0001086  47.3163  65.2893 14.61930145266186
CZ-4B R/B               
1 27432U 02024C   26051.10023407  .00000036  00000+0  41224-4 0  9992
2 27432  98.8881 104.5922 0051082  73.5010 316.5461 14.14544411226754
MIDORI II (ADEOS-II)    
1 27597U 02056A   26051.72245949  .00000246  00000+0  11444-3 0  9997
2 27597  98.7740  10.0863 0002080  66.0881 294.0518 14.29271358207879
H-2A R/B                
1 27601U 02056E   26051.74969270  .00000240  00000+0  98913-4 0  9996
2 27601  98.3172  12.7635 0069460 211.2934 213.2408 14.33748134211685
CZ-4B R/B               
1 28059U 03049C   26050.98517203  .00000388  00000+0  10084-3 0  9992
2 28059  98.6862  45.1981 0047047 286.2755  73.3268 14.55000453184021
CZ-2C R/B               
1 28222U 04012C   26051.13547425  .00044709  00000+0  50211-3 0  9993
2 28222  97.7269 114.7916 0014705  19.0803 341.1002 15.62376334201537
SL-16 R/B               
1 28353U 04021B   26051.69815615  .00000254  00000+0  15673-3 0  9998
2 28353  70.9989 268.1527 0003286  49.2676 310.8731 14.14597274120436
CZ-4B R/B               
1 28415U 04035C   26051.56525769  .00007522  00000+0  26766-3 0  9996
2 28415  97.3522  86.0151 0033169  32.3982 327.9285 15.28724589177293
CZ-2C R/B               
1 28480U 04046B   26051.72710826  .00000103  00000+0  53795-4 0  9999
2 28480  98.1991 327.7654 0138830 204.6155 154.8359 14.26985764106083
ARIANE 5 R/B            
1 28499U 04049H   26051.45355572  .00000705  00000+0  84098-4 0  9993
2 28499  98.2597 219.2688 0085076  47.5666 313.2702 14.85229890143239
CZ-2D R/B               
1 28738U 05024B   26051.57493727  .00036226  00000+0  47348-3 0  9994
2 28738  97.3609  66.1147 0007621  87.8657 272.3471 15.58534469137115
